{
  "norad_id": 49131,
  "name": "STARLINK-3096",
  "history": [
    {
      "epoch": "2026-03-28T22:00:01.999584",
      "apogee_km": 409.3286160470989,
      "perigee_km": 404.3238914518679,
      "latitude_deg": 18.5644189074181,
      "longitude_deg": -98.8977782400325,
      "semi_major_axis_km": 6784.963253749483,
      "eccentricity": 0.00036881,
      "inclination_deg": 69.9998,
      "raan_deg": 201.0988,
      "arg_perigee_deg": 282.2181,
      "mean_anomaly_deg": 122.3687,
      "mean_motion_rev_day": 15.53393602
    },
    {
      "epoch": "2026-03-29T04:00:01.999584",
      "apogee_km": 409.02271937057594,
      "perigee_km": 404.06583123084147,
      "latitude_deg": 38.94463237262742,
      "longitude_deg": -74.8977782400325,
      "semi_major_axis_km": 6784.681275300709,
      "eccentricity": 0.0003653,
      "inclination_deg": 70.0,
      "raan_deg": 200.4128,
      "arg_perigee_deg": 276.9721,
      "mean_anomaly_deg": 85.3151,
      "mean_motion_rev_day": 15.53490444
    }
  ]
}